[{"OBJECT_NAME":"STARLINK-32120","OBJECT_ID":"2024-131L","EPOCH":"2026-03-09T22:48:57.502656","MEAN_MOTION":15.30694889,"ECCENTRICITY":0.00016447,"INCLINATION":53.1604,"RA_OF_ASC_NODE":51.564,"ARG_OF_PERICENTER":95.7692,"MEAN_ANOMALY":264.3496,"EPHEMERIS_TYPE":0,"CLASSIFICATION_TYPE":"U","NORAD_CAT_ID":60265,"ELEMENT_SET_NO":999,"REV_AT_EPOCH":9180,"BSTAR":0.00074487835,"MEAN_MOTION_DOT":0.00022108,"MEAN_MOTION_DDOT":0},{"OBJECT_NAME":"CZ-6A DEB","OBJECT_ID":"2022-151TQ","EPOCH":"2026-03-09T06:57:26.684352","MEAN_MOTION":15.22919125,"ECCENTRICITY":0.00409545,"INCLINATION":98.8216,"RA_OF_ASC_NODE":191.4692,"ARG_OF_PERICENTER":160.8215,"MEAN_ANOMALY":199.457,"EPHEMERIS_TYPE":0,"CLASSIFICATION_TYPE":"U","NORAD_CAT_ID":54975,"ELEMENT_SET_NO":999,"REV_AT_EPOCH":17711,"BSTAR":0.0066825196,"MEAN_MOTION_DOT":0.00163663,"MEAN_MOTION_DDOT":0}]
